STARLINK-11254 [DTC]    
1 60731U 24152M   26097.05060740  .00005268  00000+0  48311-4 0  9998
2 60731  53.1578 336.1381 0001507  96.6204 263.4986 15.69712030 93300
STARLINK-11266 [DTC]    
1 60732U 24152N   26097.04570534  .00005689  00000+0  51791-4 0  9998
2 60732  53.1586 336.0920 0001449  75.1377 284.9802 15.69707089 93297
STARLINK-32253          
1 60733U 24152P   26096.52536203  .00001088  00000+0  48862-4 0  9990
2 60733  53.1584 139.0521 0001271  75.3833 284.7308 15.30197075 91064
STARLINK-32179          
1 60734U 24152Q   26097.09010434  .00007320  00000+0  25907-3 0  9996
2 60734  53.1596 136.9000 0001504  78.3727 281.7443 15.30195913 91066
STARLINK-32289          
1 60737U 24152T   26096.81617670 -.00002373  00000+0 -68034-4 0  9997
2 60737  53.1603 138.0324 0001886  86.5577 273.5640 15.30185776 91151
STARLINK-32304          
1 60738U 24152U   26096.81301405  .00003227  00000+0  12109-3 0  9992
2 60738  53.1607 138.0128 0001343  88.3595 271.7560 15.30183473 91159
STARLINK-32235          
1 60739U 24152V   26096.80983533 -.00000068  00000+0  98296-5 0  9994
2 60739  53.1605 137.9914 0001322  91.8386 268.2766 15.30204260 91105
STARLINK-32315          
1 60740U 24152W   26096.80667085 -.00002204  00000+0 -62294-4 0  9990
2 60740  53.1604 137.9696 0001201  86.2585 273.8553 15.30210177 91029
STARLINK-11242 [DTC]    
1 60903U 24154A   26096.99551575  .00002424  00000+0  24863-4 0  9991
2 60903  53.1588 351.4709 0000592 134.9868 225.1198 15.69697860 92965
STARLINK-11256 [DTC]    
1 60904U 24154B   26096.99061090  .00001407  00000+0  16472-4 0  9997
2 60904  53.1602 351.4386 0000821 106.3125 253.7983 15.69700344 92969
STARLINK-11159 [DTC]    
1 60905U 24154C   26096.98090377 -.00001063  00000+0 -39230-5 0  9995
2 60905  53.1580 352.1092 0000741  75.6214 284.4886 15.69715346 92955
STARLINK-11264 [DTC]    
1 60906U 24154D   26097.10333788  .00000412  00000+0  82665-5 0  9992
2 60906  53.1585 351.4455 0001422  70.5509 289.5663 15.69708754 92970
STARLINK-11226 [DTC]    
1 60907U 24154E   26096.97109002  .00004665  00000+0  43361-4 0  9990
2 60907  53.1593 352.0413 0000494  48.6190 311.4870 15.69693860 92955
STARLINK-11229 [DTC]    
1 60908U 24154F   26096.96618554  .00005413  00000+0  49532-4 0  9995
2 60908  53.1607 352.0107 0001224  61.1900 298.9241 15.69700170 92957
STARLINK-11265 [DTC]    
1 60909U 24154G   26096.98580977  .00002358  00000+0  24324-4 0  9992
2 60909  53.1599 352.1399 0001033  76.0504 284.0629 15.69696522 92956
STARLINK-11250 [DTC]    
1 60910U 24154H   26096.96127616 -.00000653  00000+0 -53872-6 0  9999
2 60910  53.1590 351.9769 0000803  75.6499 284.4608 15.69713337 92954
STARLINK-11190 [DTC]    
1 60911U 24154J   26096.95636495  .00000682  00000+0  10483-4 0  9998
2 60911  53.1599 351.9439 0000597 116.5078 243.6001 15.69707804 92941
STARLINK-11225 [DTC]    
1 60912U 24154K   26097.01514145  .00005556  00000+0  50721-4 0  9998
2 60912  53.1590 351.5907 0000602 103.0285 257.0800 15.69688303 92956
STARLINK-11273 [DTC]    
1 60913U 24154L   26097.01023250  .00005253  00000+0  48190-4 0  9992
2 60913  53.1578 351.5650 0000953  64.8709 295.2408 15.69709526 92951
STARLINK-11271 [DTC]    
1 60915U 24154N   26097.00042579  .00007435  00000+0  66270-4 0  9991
2 60915  53.1594 351.4978 0001358  57.9931 302.1219 15.69674616 92952
STARLINK-32371          
1 60916U 24154P   26096.57077443  .00001908  00000+0  76514-4 0  9992
2 60916  53.1602 154.3369 0001348  93.5504 266.5651 15.30212466 90600
STARLINK-32369          
1 60917U 24154Q   26096.87836526  .00003529  00000+0  13136-3 0  9992
2 60917  53.1615 152.7080 0001760  88.5297 271.5906 15.30169371 90658
STARLINK-32317          
1 60918U 24154R   26097.18393941  .00002791  00000+0  10635-3 0  9998
2 60918  53.1605 151.7680 0001014  76.1134 283.9979 15.30183221 90699
STARLINK-32367          
1 60919U 24154S   26096.86675396 -.00002002  00000+0 -55492-4 0  9998
2 60919  53.1602 152.6331 0001023  85.1227 274.9890 15.30196355 90653
STARLINK-32345          
1 60920U 24154T   26096.85842433 -.00003037  00000+0 -90482-4 0  9994
2 60920  53.1597 153.2884 0001070 101.4361 258.6760 15.30189007 90652
STARLINK-32356          
1 60921U 24154U   26096.43065545 -.00001027  00000+0 -22586-4 0  9997
2 60921  53.1601 154.8849 0000501  70.3072 289.7983 15.30192085 90593
STARLINK-32274          
1 60922U 24154V   26096.44753211  .00002230  00000+0  87370-4 0  9990
2 60922  53.1593 154.9913 0001175  95.4411 264.6724 15.30204733 90599
STARLINK-32373          
1 60923U 24154W   26097.17549647  .00002240  00000+0  87755-4 0  9996
2 60923  53.1599 151.7108 0001359  98.3587 261.7568 15.30194667 90708
STARLINK-11239 [DTC]    
1 60924U 24155A   26096.99805202  .00004891  00000+0  45195-4 0  9995
2 60924  53.1587 202.0628 0000809  75.1431 284.9676 15.69711928 92844
STARLINK-11245 [DTC]    
1 60925U 24155B   26096.60132060 -.00000020  00000+0  46903-5 0  9999
2 60925  53.1592 203.8492 0000765 105.9456 254.1647 15.69698747 92782
STARLINK-11244 [DTC]    
1 60926U 24155C   26096.59151647 -.00003423  00000+0 -23423-4 0  9992
2 60926  53.1588 203.7835 0000577  85.7016 274.4068 15.69704381 92836
STARLINK-11243 [DTC]    
1 60927U 24155D   26096.02339476  .00004348  00000+0  40770-4 0  9998
2 60927  53.1584 206.6437 0000821  91.8121 268.2991 15.69682104 92698
STARLINK-11238 [DTC]    
1 60928U 24155E   26096.71394090 -.00002472  00000+0 -15549-4 0  9992
2 60928  53.1597 203.1211 0001285  93.6238 266.4927 15.69705539 92854
STARLINK-11240 [DTC]    
1 60929U 24155F   26096.58170419  .00000043  00000+0  52157-5 0  9992
2 60929  53.1589 203.7174 0000807  67.2777 292.8326 15.69690804 92780
STARLINK-11251 [DTC]    
1 60930U 24155G   26097.02247031 -.00000575  00000+0  11384-6 0  9998
2 60930  53.1608 201.4867 0000928  88.0708 272.0416 15.69712930 92850
STARLINK-11204 [DTC]    
1 60931U 24155H   26096.69922203  .00001891  00000+0  20457-4 0  9992
2 60931  53.1601 203.0227 0000846 105.2603 254.8509 15.69711743 92804
STARLINK-11246 [DTC]    
1 60932U 24155J   26097.01266384  .00004142  00000+0  39026-4 0  9995
2 60932  53.1573 201.4219 0001261  98.5325 261.5836 15.69714261 92854
STARLINK-11207 [DTC]    
1 60933U 24155K   26097.00776100  .00001835  00000+0  20006-4 0  9991
2 60933  53.1585 201.3891 0001106  98.7382 261.3761 15.69705596 92852
STARLINK-11237 [DTC]    
1 60934U 24155L   26097.00285583  .00010610  00000+0  92277-4 0  9992
2 60934  53.1581 201.3551 0000835  80.0132 280.0980 15.69719972 92862
STARLINK-11253 [DTC]    
1 60935U 24155M   26096.29278029 -.00002241  00000+0 -13640-4 0  9990
2 60935  53.1601 205.4789 0000993  93.5803 266.5329 15.69718471 92738
STARLINK-11241 [DTC]    
1 60936U 24155N   26096.98823496  .00001076  00000+0  13747-4 0  9992
2 60936  53.1599 201.9914 0001416  83.7320 276.3860 15.69706227 92849
STARLINK-32259          
1 60937U 24155P   26097.00439623  .00005332  00000+0  19202-3 0  9992
2 60937  53.1608 358.3172 0001121  89.9921 270.1208 15.30202764 90674
STARLINK-32262          
1 60938U 24155Q   26096.91751456  .00098685  00000+0  93965-3 0  9994
2 60938  53.1484 334.6361 0007400 181.2541 178.8458 15.66026152 91041
STARLINK-32258          
1 60939U 24155R   26096.99067840  .00001273  00000+0  55124-4 0  9993
2 60939  53.1627 358.2298 0001788  17.9971 342.1092 15.30185796 90621
STARLINK-32251          
1 60940U 24155S   26096.99702068  .00004991  00000+0  18065-3 0  9995
2 60940  53.1627 358.2687 0001563  59.1945 300.9209 15.30174425 90679
STARLINK-32224          
1 60941U 24155T   26096.99385081  .00004507  00000+0  16431-3 0  9996
2 60941  53.1622 358.2508 0001193  66.9688 293.1438 15.30179524 90689
STARLINK-32184          
1 60942U 24155U   26097.00124211  .00002075  00000+0  82173-4 0  9991
2 60942  53.1622 358.2960 0001285 110.6350 249.4788 15.30191598 90628
STARLINK-32288          
1 60943U 24155V   26097.01073403  .00002358  00000+0  91714-4 0  9994
2 60943  53.1614 358.3516 0001122 101.2005 258.9122 15.30194597 90620
STARLINK-32276          
1 60944U 24155W   26097.00757824 -.00002312  00000+0 -66025-4 0  9999
2 60944  53.1624 358.3319 0001163  32.4087 327.6985 15.30167932 90728
STARLINK-11289 [DTC]    
1 60991U 24158B   26096.55228937 -.00001987  00000+0 -11550-4 0  9991
2 60991  53.1593 143.7024 0000950  70.3364 289.7756 15.69713213 91979
STARLINK-11282 [DTC]    
1 60992U 24158C   26096.37600454  .00000581  00000+0  96606-5 0  9993
2 60992  53.1592 144.7425 0001044 114.6475 245.4652 15.69688334 91941
STARLINK-11283 [DTC]    
1 60993U 24158D   26096.53766005 -.00000175  00000+0  34115-5 0  9994
2 60993  53.1589 144.3411 0001028 110.3817 249.7312 15.69732453 91968
STARLINK-11267 [DTC]    
1 60994U 24158E   26096.34176921  .00000917  00000+0  12439-4 0  9993
2 60994  53.1575 145.2528 0001461 110.4321 249.6854 15.69697583 91936
STARLINK-11269 [DTC]    
1 60995U 24158F   26096.84621004 -.00004505  00000+0 -32346-4 0  9994
2 60995  53.1590 142.7051 0000955 109.8056 250.3065 15.69713119 92007
STARLINK-11281 [DTC]    
1 60996U 24158G   26096.84130241  .00000813  00000+0  11575-4 0  9990
2 60996  53.1589 142.6717 0001389  89.9427 270.1750 15.69706813 92000
STARLINK-11260 [DTC]    
1 60997U 24158H   26096.77459224 -.00005521  00000+0 -40719-4 0  9993
2 60997  53.1598 120.6561 0001171 129.6254 230.4867 15.69720579 92365
STARLINK-11287 [DTC]    
1 60998U 24158J   26096.83638941 -.00003268  00000+0 -22107-4 0  9993
2 60998  53.1588 142.6386 0001229 135.4695 224.6422 15.69724187 92004
STARLINK-11270 [DTC]    
1 60999U 24158K   26096.83149660  .00212529  00000+0  17100-2 0  9994
2 60999  53.1573 142.6056 0001963  80.2244 279.8996 15.69773945 92009
STARLINK-11290 [DTC]    
1 61000U 24158L   26096.82659023  .00001518  00000+0  17393-4 0  9996
2 61000  53.1592 142.5746 0001047 128.9506 231.1605 15.69697331 92072
STARLINK-11274 [DTC]    
1 61001U 24158M   26096.56209118 -.00001325  00000+0 -60735-5 0  9991
2 61001  53.1584 143.7628 0001091 122.7902 237.3221 15.69718573 91968
